{
  "type": "FeatureCollection",
  "features": [
    {
      "type": "Feature",
      "properties": {
        "norad_id": 25590,
        "name": "COSMOS 2361",
        "group": "musson",
        "lat": 27.935083098953164,
        "lon": 164.38762745848524,
        "alt_km": 1000.9779355770743,
        "timestamp": "2025-12-07T05:38:10.174108+00:00",
        "meta_object_name": "COSMOS 2361",
        "meta_object_id": "1998-076A",
        "meta_epoch": "2025-12-06T13:43:23.646144",
        "meta_mean_motion": 13.73216489,
        "meta_eccentricity": 0.00300945,
        "meta_inclination": 82.9339,
        "meta_ra_of_asc_node": 348.6488,
        "meta_arg_of_pericenter": 283.5188,
        "meta_mean_anomaly": 192.5411,
        "meta_ephemeris_type": 0,
        "meta_classification_type": "U",
        "meta_norad_cat_id": 25590,
        "meta_element_set_no": 999,
        "meta_rev_at_epoch": 35026,
        "meta_bstar": 8.701482e-05,
        "meta_mean_motion_dot": 9.6e-07,
        "meta_mean_motion_ddot": 0,
        "tle_line1": "1 25590U 98076A   25340.57180146  .00000096  00000+0  87015-4 0  9996",
        "tle_line2": "2 25590  82.9339 348.6488 0030094 283.5188 192.5411 13.73216489350262"
      },
      "geometry": {
        "type": "Point",
        "coordinates": [
          164.38762745848524,
          27.935083098953164
        ]
      }
    },
    {
      "type": "Feature",
      "properties": {
        "norad_id": 26818,
        "name": "COSMOS 2378",
        "group": "musson",
        "lat": -26.12918727370765,
        "lon": -172.70162196711797,
        "alt_km": 967.4654797862368,
        "timestamp": "2025-12-07T05:38:10.174129+00:00",
        "meta_object_name": "COSMOS 2378",
        "meta_object_id": "2001-023A",
        "meta_epoch": "2025-12-06T15:14:03.854976",
        "meta_mean_motion": 13.74141306,
        "meta_eccentricity": 0.00320734,
        "meta_inclination": 82.9276,
        "meta_ra_of_asc_node": 4.2519,
        "meta_arg_of_pericenter": 222.2398,
        "meta_mean_anomaly": 257.2518,
        "meta_ephemeris_type": 0,
        "meta_classification_type": "U",
        "meta_norad_cat_id": 26818,
        "meta_element_set_no": 999,
        "meta_rev_at_epoch": 22839,
        "meta_bstar": 8.3109267e-05,
        "meta_mean_motion_dot": 9.3e-07,
        "meta_mean_motion_ddot": 0,
        "tle_line1": "1 26818U 01023A   25340.63476684  .00000093  00000+0  83109-4 0  9995",
        "tle_line2": "2 26818  82.9276   4.2519 0032073 222.2398 257.2518 13.74141306228399"
      },
      "geometry": {
        "type": "Point",
        "coordinates": [
          -172.70162196711797,
          -26.12918727370765
        ]
      }
    },
    {
      "type": "Feature",
      "properties": {
        "norad_id": 27436,
        "name": "COSMOS 2389",
        "group": "musson",
        "lat": 32.47400423901532,
        "lon": -44.422173685142354,
        "alt_km": 953.283682753271,
        "timestamp": "2025-12-07T05:38:10.174143+00:00",
        "meta_object_name": "COSMOS 2389",
        "meta_object_id": "2002-026A",
        "meta_epoch": "2025-12-06T09:15:22.243968",
        "meta_mean_motion": 13.75153681,
        "meta_eccentricity": 0.00477458,
        "meta_inclination": 82.9496,
        "meta_ra_of_asc_node": 311.689,
        "meta_arg_of_pericenter": 78.0104,
        "meta_mean_anomaly": 73.7342,
        "meta_ephemeris_type": 0,
        "meta_classification_type": "U",
        "meta_norad_cat_id": 27436,
        "meta_element_set_no": 999,
        "meta_rev_at_epoch": 18061,
        "meta_bstar": 8.7007497e-05,
        "meta_mean_motion_dot": 1e-06,
        "meta_mean_motion_ddot": 0,
        "tle_line1": "1 27436U 02026A   25340.38567412  .00000100  00000+0  87007-4 0  9998",
        "tle_line2": "2 27436  82.9496 311.6890 0047745  78.0104  73.7342 13.75153681180619"
      },
      "geometry": {
        "type": "Point",
        "coordinates": [
          -44.422173685142354,
          32.47400423901532
        ]
      }
    },
    {
      "type": "Feature",
      "properties": {
        "norad_id": 27818,
        "name": "COSMOS 2398",
        "group": "musson",
        "lat": 39.8665572441488,
        "lon": -77.31129734884645,
        "alt_km": 986.236943904737,
        "timestamp": "2025-12-07T05:38:10.174154+00:00",
        "meta_object_name": "COSMOS 2398",
        "meta_object_id": "2003-023A",
        "meta_epoch": "2025-12-06T14:31:56.142624",
        "meta_mean_motion": 13.72384745,
        "meta_eccentricity": 0.00323483,
        "meta_inclination": 82.9479,
        "meta_ra_of_asc_node": 277.2188,
        "meta_arg_of_pericenter": 128.2558,
        "meta_mean_anomaly": 44.9235,
        "meta_ephemeris_type": 0,
        "meta_classification_type": "U",
        "meta_norad_cat_id": 27818,
        "meta_element_set_no": 999,
        "meta_rev_at_epoch": 12732,
        "meta_bstar": 7.6676922e-05,
        "meta_mean_motion_dot": 8.6e-07,
        "meta_mean_motion_ddot": 0,
        "tle_line1": "1 27818U 03023A   25340.60551091  .00000086  00000+0  76677-4 0  9995",
        "tle_line2": "2 27818  82.9479 277.2188 0032348 128.2558  44.9235 13.72384745127329"
      },
      "geometry": {
        "type": "Point",
        "coordinates": [
          -77.31129734884645,
          39.8665572441488
        ]
      }
    },
    {
      "type": "Feature",
      "properties": {
        "norad_id": 28380,
        "name": "COSMOS 2407",
        "group": "musson",
        "lat": 20.58995425436992,
        "lon": 34.308036734807814,
        "alt_km": 976.4746543710789,
        "timestamp": "2025-12-07T05:38:10.174165+00:00",
        "meta_object_name": "COSMOS 2407",
        "meta_object_id": "2004-028A",
        "meta_epoch": "2025-12-06T15:12:05.425632",
        "meta_mean_motion": 13.76312627,
        "meta_eccentricity": 0.00404804,
        "meta_inclination": 82.9614,
        "meta_ra_of_asc_node": 217.4135,
        "meta_arg_of_pericenter": 71.4014,
        "meta_mean_anomaly": 348.9699,
        "meta_ephemeris_type": 0,
        "meta_classification_type": "U",
        "meta_norad_cat_id": 28380,
        "meta_element_set_no": 999,
        "meta_rev_at_epoch": 7339,
        "meta_bstar": 0.00010274243,
        "meta_mean_motion_dot": 1.16e-06,
        "meta_mean_motion_ddot": 0,
        "tle_line1": "1 28380U 04028A   25340.63339613  .00000116  00000+0  10274-3 0  9997",
        "tle_line2": "2 28380  82.9614 217.4135 0040480  71.4014 348.9699 13.76312627 73397"
      },
      "geometry": {
        "type": "Point",
        "coordinates": [
          34.308036734807814,
          20.58995425436992
        ]
      }
    },
    {
      "type": "Feature",
      "properties": {
        "norad_id": 28521,
        "name": "COSMOS 2414",
        "group": "musson",
        "lat": -13.057831483089506,
        "lon": 10.467136281390463,
        "alt_km": 917.0125457744389,
        "timestamp": "2025-12-07T05:38:10.174175+00:00",
        "meta_object_name": "COSMOS 2414",
        "meta_object_id": "2005-002A",
        "meta_epoch": "2025-12-06T14:52:09.987456",
        "meta_mean_motion": 13.87901802,
        "meta_eccentricity": 0.00405247,
        "meta_inclination": 82.9498,
        "meta_ra_of_asc_node": 189.2877,
        "meta_arg_of_pericenter": 156.887,
        "meta_mean_anomaly": 203.4128,
        "meta_ephemeris_type": 0,
        "meta_classification_type": "U",
        "meta_norad_cat_id": 28521,
        "meta_element_set_no": 999,
        "meta_rev_at_epoch": 5710,
        "meta_bstar": 9.2152822e-05,
        "meta_mean_motion_dot": 1.26e-06,
        "meta_mean_motion_ddot": 0,
        "tle_line1": "1 28521U 05002A   25340.61956004  .00000126  00000+0  92153-4 0  9992",
        "tle_line2": "2 28521  82.9498 189.2877 0040524 156.8870 203.4128 13.87901802 57104"
      },
      "geometry": {
        "type": "Point",
        "coordinates": [
          10.467136281390463,
          -13.057831483089506
        ]
      }
    },
    {
      "type": "Feature",
      "properties": {
        "norad_id": 32052,
        "name": "COSMOS 2429",
        "group": "musson",
        "lat": -39.03275241764489,
        "lon": 173.1005011883409,
        "alt_km": 1015.8543804183155,
        "timestamp": "2025-12-07T05:38:10.174186+00:00",
        "meta_object_name": "COSMOS 2429",
        "meta_object_id": "2007-038A",
        "meta_epoch": "2025-12-06T07:37:13.123200",
        "meta_mean_motion": 13.75148429,
        "meta_eccentricity": 0.00395213,
        "meta_inclination": 82.9803,
        "meta_ra_of_asc_node": 348.0437,
        "meta_arg_of_pericenter": 55.3462,
        "meta_mean_anomaly": 305.141,
        "meta_ephemeris_type": 0,
        "meta_classification_type": "U",
        "meta_norad_cat_id": 32052,
        "meta_element_set_no": 999,
        "meta_rev_at_epoch": 91514,
        "meta_bstar": 7.1111268e-05,
        "meta_mean_motion_dot": 8.4e-07,
        "meta_mean_motion_ddot": 0,
        "tle_line1": "1 32052U 07038A   25340.31751300  .00000084  00000+0  71111-4 0  9990",
        "tle_line2": "2 32052  82.9803 348.0437 0039521  55.3462 305.1410 13.75148429915146"
      },
      "geometry": {
        "type": "Point",
        "coordinates": [
          173.1005011883409,
          -39.03275241764489
        ]
      }
    },
    {
      "type": "Feature",
      "properties": {
        "norad_id": 35635,
        "name": "COSMOS 2454",
        "group": "musson",
        "lat": -23.012737850128488,
        "lon": -4.171730645986539,
        "alt_km": 940.5109617035214,
        "timestamp": "2025-12-07T05:38:10.174196+00:00",
        "meta_object_name": "COSMOS 2454",
        "meta_object_id": "2009-039A",
        "meta_epoch": "2025-12-06T15:09:08.424864",
        "meta_mean_motion": 13.89927606,
        "meta_eccentricity": 0.00204991,
        "meta_inclination": 82.9557,
        "meta_ra_of_asc_node": 173.2754,
        "meta_arg_of_pericenter": 90.0895,
        "meta_mean_anomaly": 334.7919,
        "meta_ephemeris_type": 0,
        "meta_classification_type": "U",
        "meta_norad_cat_id": 35635,
        "meta_element_set_no": 999,
        "meta_rev_at_epoch": 83065,
        "meta_bstar": 8.5915832e-05,
        "meta_mean_motion_dot": 1.22e-06,
        "meta_mean_motion_ddot": 0,
        "tle_line1": "1 35635U 09039A   25340.63134751  .00000122  00000+0  85916-4 0  9994",
        "tle_line2": "2 35635  82.9557 173.2754 0020499  90.0895 334.7919 13.89927606830653"
      },
      "geometry": {
        "type": "Point",
        "coordinates": [
          -4.171730645986539,
          -23.012737850128488
        ]
      }
    },
    {
      "type": "Feature",
      "properties": {
        "norad_id": 36519,
        "name": "COSMOS 2463",
        "group": "musson",
        "lat": -63.698374633480924,
        "lon": -134.76814605503372,
        "alt_km": 987.671220101457,
        "timestamp": "2025-12-07T05:38:10.174206+00:00",
        "meta_object_name": "COSMOS 2463",
        "meta_object_id": "2010-017A",
        "meta_epoch": "2025-12-06T15:02:37.660992",
        "meta_mean_motion": 13.7164832,
        "meta_eccentricity": 0.00349663,
        "meta_inclination": 82.9618,
        "meta_ra_of_asc_node": 31.2045,
        "meta_arg_of_pericenter": 305.6125,
        "meta_mean_anomaly": 178.62,
        "meta_ephemeris_type": 0,
        "meta_classification_type": "U",
        "meta_norad_cat_id": 36519,
        "meta_element_set_no": 999,
        "meta_rev_at_epoch": 78153,
        "meta_bstar": 8.7401317e-05,
        "meta_mean_motion_dot": 9.4e-07,
        "meta_mean_motion_ddot": 0,
        "tle_line1": "1 36519U 10017A   25340.62682478  .00000094  00000+0  87401-4 0  9996",
        "tle_line2": "2 36519  82.9618  31.2045 0034966 305.6125 178.6200 13.71648320781538"
      },
      "geometry": {
        "type": "Point",
        "coordinates": [
          -134.76814605503372,
          -63.698374633480924
        ]
      }
    }
  ]
}